[
    {
        "Altitude(m)": 707975.9930725402,
        "Argument of Periapsis(deg)": 0.004556048474650827,
        "Eccentricity": 0.0,
        "Inclination(deg)": 45.0,
        "Latitude(deg)": -19.614823026915257,
        "Longitude(deg)": 3.9484891448988475,
        "Mean Anomaly(deg)": -28.114013341007645,
        "RAAN(deg)": 124.99569922341671,
        "Satellite Name": "Constellation 1 570",
        "Satellite Number": 570,
        "Semi-Major Axis(m)": 7083131.272910544,
        "Time(s)": 76
    },
    {
        "Altitude(m)": 707962.9625479608,
        "Argument of Periapsis(deg)": 0.004615996480896233,
        "Eccentricity": 0.0,
        "Inclination(deg)": 45.0,
        "Latitude(deg)": -19.574491989069728,
        "Longitude(deg)": 3.992583013920537,
        "Mean Anomaly(deg)": -28.053312200757798,
        "RAAN(deg)": 124.99564263425115,
        "Satellite Name": "Constellation 1 570",
        "Satellite Number": 570,
        "Semi-Major Axis(m)": 7083131.272910544,
        "Time(s)": 77
    },
    {
        "Altitude(m)": 707949.9406197533,
        "Argument of Periapsis(deg)": 0.004675944487141638,
        "Eccentricity": 0.0,
        "Inclination(deg)": 45.0,
        "Latitude(deg)": -19.53414780881765,
        "Longitude(deg)": 4.0366530270511305,
        "Mean Anomaly(deg)": -27.992611060507937,
        "RAAN(deg)": 124.9955860450856,
        "Satellite Name": "Constellation 1 570",
        "Satellite Number": 570,
        "Semi-Major Axis(m)": 7083131.272910544,
        "Time(s)": 78
    },
    {
        "Altitude(m)": 707936.9273299522,
        "Argument of Periapsis(deg)": 0.004735892493387044,
        "Eccentricity": 0.0,
        "Inclination(deg)": 45.0,
        "Latitude(deg)": -19.493790521272793,
        "Longitude(deg)": 4.080699241787637,
        "Mean Anomaly(deg)": -27.931909920257958,
        "RAAN(deg)": 124.99552945592,
        "Satellite Name": "Constellation 1 570",
        "Satellite Number": 570,
        "Semi-Major Axis(m)": 7083131.272910544,
        "Time(s)": 79
    },
    {
        "Altitude(m)": 707923.9227205433,
        "Argument of Periapsis(deg)": 0.004795840499632449,
        "Eccentricity": 0.0,
        "Inclination(deg)": 45.0,
        "Latitude(deg)": -19.45342016150265,
        "Longitude(deg)": 4.124721715598597,
        "Mean Anomaly(deg)": -27.87120878000806,
        "RAAN(deg)": 124.99547286675445,
        "Satellite Name": "Constellation 1 570",
        "Satellite Number": 570,
        "Semi-Major Axis(m)": 7083131.272910544,
        "Time(s)": 80
    },
    {
        "Altitude(m)": 707910.9268334586,
        "Argument of Periapsis(deg)": 0.004855788505877855,
        "Eccentricity": 0.0,
        "Inclination(deg)": 45.0,
        "Latitude(deg)": -19.41303676452825,
        "Longitude(deg)": 4.168720505924702,
        "Mean Anomaly(deg)": -27.810507639758164,
        "RAAN(deg)": 124.99541627758889,
        "Satellite Name": "Constellation 1 570",
        "Satellite Number": 570,
        "Semi-Major Axis(m)": 7083131.272910544,
        "Time(s)": 81
    },
    {
        "Altitude(m)": 707897.9397105854,
        "Argument of Periapsis(deg)": 0.00491573651212326,
        "Eccentricity": 0.0,
        "Inclination(deg)": 45.0,
        "Latitude(deg)": -19.372640365324745,
        "Longitude(deg)": 4.212695502081228,
        "Mean Anomaly(deg)": -27.749806499508285,
        "RAAN(deg)": 124.9953596884233,
        "Satellite Name": "Constellation 1 570",
        "Satellite Number": 570,
        "Semi-Major Axis(m)": 7083131.272910544,
        "Time(s)": 82
    },
    {
        "Altitude(m)": 707884.9613937637,
        "Argument of Periapsis(deg)": 0.004975684518368666,
        "Eccentricity": 0.0,
        "Inclination(deg)": 45.0,
        "Latitude(deg)": -19.33223099882016,
        "Longitude(deg)": 4.256647097646411,
        "Mean Anomaly(deg)": -27.68910535925834,
        "RAAN(deg)": 124.99530309925775,
        "Satellite Name": "Constellation 1 570",
        "Satellite Number": 570,
        "Semi-Major Axis(m)": 7083131.272910544,
        "Time(s)": 83
    },
    {
        "Altitude(m)": 707871.9919247791,
        "Argument of Periapsis(deg)": 0.005035632524614072,
        "Eccentricity": 0.0,
        "Inclination(deg)": 45.0,
        "Latitude(deg)": -19.291808699897654,
        "Longitude(deg)": 4.300575181878704,
        "Mean Anomaly(deg)": -27.628404219008466,
        "RAAN(deg)": 124.99524651009216,
        "Satellite Name": "Constellation 1 570",
        "Satellite Number": 570,
        "Semi-Major Axis(m)": 7083131.272910544,
        "Time(s)": 84
    },
    {
        "Altitude(m)": 707859.0313453805,
        "Argument of Periapsis(deg)": 0.0050955805308594785,
        "Eccentricity": 0.0,
        "Inclination(deg)": 45.0,
        "Latitude(deg)": -19.25137350339404,
        "Longitude(deg)": 4.344479812105421,
        "Mean Anomaly(deg)": -27.567703078758615,
        "RAAN(deg)": 124.9951899209266,
        "Satellite Name": "Constellation 1 570",
        "Satellite Number": 570,
        "Semi-Major Axis(m)": 7083131.272910544,
        "Time(s)": 85
    },
    {
        "Altitude(m)": 707846.0796972621,
        "Argument of Periapsis(deg)": 0.005155528537104883,
        "Eccentricity": 0.0,
        "Inclination(deg)": 45.0,
        "Latitude(deg)": -19.210925444100333,
        "Longitude(deg)": 4.388361045625382,
        "Mean Anomaly(deg)": -27.507001938508715,
        "RAAN(deg)": 124.99513333176104,
        "Satellite Name": "Constellation 1 570",
        "Satellite Number": 570,
        "Semi-Major Axis(m)": 7083131.272910544,
        "Time(s)": 86
    },
    {
        "Altitude(m)": 707833.1370220658,
        "Argument of Periapsis(deg)": 0.0052154765433502885,
        "Eccentricity": 0.0,
        "Inclination(deg)": 45.0,
        "Latitude(deg)": -19.170464556762024,
        "Longitude(deg)": 4.432218939708828,
        "Mean Anomaly(deg)": -27.44630079825878,
        "RAAN(deg)": 124.99507674259546,
        "Satellite Name": "Constellation 1 570",
        "Satellite Number": 570,
        "Semi-Major Axis(m)": 7083131.272910544,
        "Time(s)": 87
    },
    {
        "Altitude(m)": 707820.2033613845,
        "Argument of Periapsis(deg)": 0.005275424549595694,
        "Eccentricity": 0.0,
        "Inclination(deg)": 45.0,
        "Latitude(deg)": -19.129990876078995,
        "Longitude(deg)": 4.476053551597291,
        "Mean Anomaly(deg)": -27.385599658008832,
        "RAAN(deg)": 124.99502015342989,
        "Satellite Name": "Constellation 1 570",
        "Satellite Number": 570,
        "Semi-Major Axis(m)": 7083131.272910544,
        "Time(s)": 88
    },
    {
        "Altitude(m)": 707807.2787567695,
        "Argument of Periapsis(deg)": 0.0053353725558411,
        "Eccentricity": 0.0,
        "Inclination(deg)": 45.0,
        "Latitude(deg)": -19.089504436706132,
        "Longitude(deg)": 4.519864770406583,
        "Mean Anomaly(deg)": -27.324898517758978,
        "RAAN(deg)": 124.99496356426434,
        "Satellite Name": "Constellation 1 570",
        "Satellite Number": 570,
        "Semi-Major Axis(m)": 7083131.272910544,
        "Time(s)": 89
    },
    {
        "Altitude(m)": 707794.363249718,
        "Argument of Periapsis(deg)": 0.005395320562086505,
        "Eccentricity": 0.0,
        "Inclination(deg)": 45.0,
        "Latitude(deg)": -19.049005273251925,
        "Longitude(deg)": 4.563652989515175,
        "Mean Anomaly(deg)": -27.264197377509106,
        "RAAN(deg)": 124.99490697509874,
        "Satellite Name": "Constellation 1 570",
        "Satellite Number": 570,
        "Semi-Major Axis(m)": 7083131.272910544,
        "Time(s)": 90
    },
    {
        "Altitude(m)": 707781.4568816791,
        "Argument of Periapsis(deg)": 0.00545526856833191,
        "Eccentricity": 0.0,
        "Inclination(deg)": 45.0,
        "Latitude(deg)": -19.00849342028061,
        "Longitude(deg)": 4.607418097981561,
        "Mean Anomaly(deg)": -27.20349623725916,
        "RAAN(deg)": 124.99485038593319,
        "Satellite Name": "Constellation 1 570",
        "Satellite Number": 570,
        "Semi-Major Axis(m)": 7083131.272910544,
        "Time(s)": 91
    },
    {
        "Altitude(m)": 707768.5596940479,
        "Argument of Periapsis(deg)": 0.005515216574577317,
        "Eccentricity": 0.0,
        "Inclination(deg)": 45.0,
        "Latitude(deg)": -18.967968912311225,
        "Longitude(deg)": 4.651160152932249,
        "Mean Anomaly(deg)": -27.14279509700928,
        "RAAN(deg)": 124.99479379676761,
        "Satellite Name": "Constellation 1 570",
        "Satellite Number": 570,
        "Semi-Major Axis(m)": 7083131.272910544,
        "Time(s)": 92
    },
    {
        "Altitude(m)": 707755.6717281716,
        "Argument of Periapsis(deg)": 0.005575164580822722,
        "Eccentricity": 0.0,
        "Inclination(deg)": 45.0,
        "Latitude(deg)": -18.927431783817713,
        "Longitude(deg)": 4.6948792114650715,
        "Mean Anomaly(deg)": -27.082093956759433,
        "RAAN(deg)": 124.99473720760204,
        "Satellite Name": "Constellation 1 570",
        "Satellite Number": 570,
        "Semi-Major Axis(m)": 7083131.272910544,
        "Time(s)": 93
    },
    {
        "Altitude(m)": 707742.7930253538,
        "Argument of Periapsis(deg)": 0.005635112587068129,
        "Eccentricity": 0.0,
        "Inclination(deg)": 45.0,
        "Latitude(deg)": -18.88688206922903,
        "Longitude(deg)": 4.738575330648978,
        "Mean Anomaly(deg)": -27.021392816509486,
        "RAAN(deg)": 124.99468061843649,
        "Satellite Name": "Constellation 1 570",
        "Satellite Number": 570,
        "Semi-Major Axis(m)": 7083131.272910544,
        "Time(s)": 94
    }
]